<?xml version='1.0' encoding='utf-8'?>
<osm attribution="https://www.openstreetmap.org/copyright" copyright="OpenStreetMap and contributors" generator="OSMnx 2.1.0" license="https://opendatacommons.org/licenses/odbl/1-0/" version="0.6"><bounds minlon="106.9646586" minlat="47.8701337" maxlon="106.9662727" maxlat="47.8730384" /><node uid="1" lat="47.8703493" visible="true" changeset="1" id="2345210045" timestamp="2026-04-20T16:57:33Z" lon="106.9658454" user="OSMnx" version="1" /><node uid="1" lat="47.8718242" visible="true" changeset="1" id="2345210046" timestamp="2026-04-20T16:57:33Z" lon="106.9658138" user="OSMnx" version="1" /><node uid="1" lat="47.8718942" visible="true" changeset="1" id="4520035179" timestamp="2026-04-20T16:57:33Z" lon="106.9657871" user="OSMnx" version="1" /><node uid="1" lat="47.8727585" visible="true" changeset="1" id="7986689848" timestamp="2026-04-20T16:57:33Z" lon="106.9646586" user="OSMnx" version="1" /><node uid="1" lat="47.8723962" visible="true" changeset="1" id="7986689849" timestamp="2026-04-20T16:57:33Z" lon="106.9648712" user="OSMnx" version="1" /><node uid="1" lat="47.8721908" visible="true" changeset="1" id="7986689850" timestamp="2026-04-20T16:57:33Z" lon="106.965009" user="OSMnx" version="1" /><node uid="1" lat="47.8719888" visible="true" changeset="1" id="7986689851" timestamp="2026-04-20T16:57:33Z" lon="106.9651978" user="OSMnx" version="1" /><node uid="1" lat="47.871934" visible="true" changeset="1" id="7986689852" timestamp="2026-04-20T16:57:33Z" lon="106.9654632" user="OSMnx" version="1" /><node uid="1" lat="47.8719819" visible="true" changeset="1" id="7986689853" timestamp="2026-04-20T16:57:33Z" lon="106.9656673" user="OSMnx" version="1" /><node uid="1" lat="47.872071" visible="true" changeset="1" id="7986689854" timestamp="2026-04-20T16:57:33Z" lon="106.9658562" user="OSMnx" version="1" /><node uid="1" lat="47.8722247" visible="true" changeset="1" id="7986689855" timestamp="2026-04-20T16:57:33Z" lon="106.9660314" user="OSMnx" version="1" /><node uid="1" lat="47.8723788" visible="true" changeset="1" id="7986689856" timestamp="2026-04-20T16:57:33Z" lon="106.9662359" user="OSMnx" version="1" /><node uid="1" lat="47.872685" visible="true" changeset="1" id="7986689857" timestamp="2026-04-20T16:57:33Z" lon="106.9662727" user="OSMnx" version="1" /><node uid="1" lat="47.8720074" visible="true" changeset="1" id="8127762877" timestamp="2026-04-20T16:57:33Z" lon="106.9657101" user="OSMnx" version="1" /><node uid="1" lat="47.8711434" visible="true" changeset="1" id="8128178623" timestamp="2026-04-20T16:57:33Z" lon="106.9658938" user="OSMnx" version="1" /><node uid="1" lat="47.8716727" visible="true" changeset="1" id="8128178634" timestamp="2026-04-20T16:57:33Z" lon="106.9658503" user="OSMnx" version="1" /><node uid="1" lat="47.8705082" visible="true" changeset="1" id="8128178674" timestamp="2026-04-20T16:57:33Z" lon="106.9658551" user="OSMnx" version="1" /><node uid="1" lat="47.8703101" visible="true" changeset="1" id="8128178691" timestamp="2026-04-20T16:57:33Z" lon="106.9658415" user="OSMnx" version="1" /><node uid="1" lat="47.8713145" visible="true" changeset="1" id="8128178740" timestamp="2026-04-20T16:57:33Z" lon="106.9658974" user="OSMnx" version="1" /><node uid="1" lat="47.8714549" visible="true" changeset="1" id="8128178741" timestamp="2026-04-20T16:57:33Z" lon="106.9659027" user="OSMnx" version="1" /><node uid="1" lat="47.871203" visible="true" changeset="1" id="8128178742" timestamp="2026-04-20T16:57:33Z" lon="106.9658974" user="OSMnx" version="1" /><node uid="1" lat="47.8701337" visible="true" changeset="1" id="8682762537" timestamp="2026-04-20T16:57:33Z" lon="106.9658397" user="OSMnx" version="1" /><node uid="1" lat="47.8730384" visible="true" changeset="1" id="8684519846" timestamp="2026-04-20T16:57:33Z" lon="106.9661859" user="OSMnx" version="1" /><way uid="1" timestamp="2026-04-20T16:57:33Z" user="OSMnx" changeset="1" visible="true" id="159155531" version="1"><nd ref="8127762877" /><nd ref="4520035179" /><nd ref="2345210046" /><nd ref="8128178634" /><nd ref="8128178741" /><nd ref="8128178740" /><nd ref="8128178742" /><nd ref="8128178623" /><nd ref="8128178674" /><nd ref="2345210045" /><nd ref="8128178691" /><nd ref="8682762537" /><tag k="highway" v="residential" /></way><way uid="1" timestamp="2026-04-20T16:57:33Z" user="OSMnx" changeset="1" visible="true" id="856602224" version="1"><nd ref="7986689848" /><nd ref="7986689849" /><nd ref="7986689850" /><nd ref="7986689851" /><nd ref="7986689852" /><nd ref="7986689853" /><nd ref="8127762877" /><nd ref="7986689854" /><nd ref="7986689855" /><nd ref="7986689856" /><nd ref="7986689857" /><nd ref="8684519846" /><tag k="highway" v="residential" /></way></osm>